#aV2023  9 23  0  0  0.00000000     288 DD+AD WGS84 FIT  NGA
## 2280 518400.00000000   300.00000000 60210 0.0000000000000
+   32     1  2  3  4  5  6  7  8  9 10 11 12 13 14 15 16 17
+         18 19 20 21 22 23 24 25 26 27 28 29 30 31 32  0  0
+          0  0  0  0  0  0  0  0  0  0  0  0  0  0  0  0  0
+          0  0  0  0  0  0  0  0  0  0  0  0  0  0  0  0  0
+          0  0  0  0  0  0  0  0  0  0  0  0  0  0  0  0  0
++         2  2  2  2  2  2  2  2  2  2  2  2  2  2  2  2  2
++         2  2  2  2  2  2  2  2  2  2  2  2  2  2  2  0  0
++         0  0  0  0  0  0  0  0  0  0  0  0  0  0  0  0  0
++         0  0  0  0  0  0  0  0  0  0  0  0  0  0  0  0  0
++         0  0  0  0  0  0  0  0  0  0  0  0  0  0  0  0  0
%c cc cc ccc ccc cccc cccc cccc cccc ccccc ccccc ccccc ccccc
%c cc cc ccc ccc cccc cccc cccc cccc ccccc ccccc ccccc ccccc
%f  0.0000000  0.000000000  0.00000000000  0.000000000000000
%f  0.0000000  0.000000000  0.00000000000  0.000000000000000
%i    0    0    0    0      0      0      0      0         0
%i    0    0    0    0      0      0      0      0         0
/*      NGA, ST. LOUIS,MO.                                  
/*   EPHEMERIS COMPUTED FROM 2 DAYS OF DATA                 
/*   EPOCHA v8 SMOOTHER                                     
/*   G2139 IERS2010 SATIGS SATAPC                           
*  2023  9 23 10  0  0.00000000
P  1  21926.805663  14878.906781   3269.424058    164.871106                    
V  1   2526.770820   4084.191298 -31826.878743     -0.007765                    
P  2  20917.704502  16124.165078  -3092.629851   -550.606019                    
V  2  -5139.282063   -388.958033 -31478.375730      0.045396                    
P  3  12697.907575  10229.007532  20842.251318   -119.659409                    
V  3  -4282.452434  26385.312953 -10162.462602      0.212700                    
P  4  21794.973786   3030.055635  14969.799414    164.227940                    
V  4 -17101.218884   8362.916346  23095.835821      0.110517                    
P  5  -6383.634836 -22797.972195 -12125.331442   -143.802090                    
V  5   3510.487144 -14883.773647  26631.185449     -0.014583                    
P  6   5076.062101 -14285.739528  21861.294485    545.001028                    
V  6  21840.114688  16774.790530   5996.135965     -0.072514                    
P  7  20753.832770   1353.899332 -16315.016926     59.519334                    
V  7  15793.272271  14637.311197  20238.523049     -0.104064                    
P  8  13849.168861   9754.928179 -20625.084713   -143.667021                    
V  8 -23400.379852  11207.555728 -10053.372974     -0.018963                    
P  9  24991.202652  -5338.245470   7255.861623    -52.037159                    
V  9  -7437.349519   6253.837795  29809.927603      0.104474                    
P 10 -10883.538225  20766.307420 -11976.647162    -54.517282                    
V 10    -44.977195 -15728.970407 -27140.798143     -0.015094                    
P 11  -7555.084311 -20382.471751  15310.794138   -382.287531                    
V 11  15940.443329  11185.192663  22725.439550     -0.180891                    
P 12 -10780.473405 -14281.449383  19381.570784   -427.962708                    
V 12   6312.732003 -24392.128562 -14190.289336     -0.043139                    
P 13  -4110.686617 -14531.069433 -22046.650663    575.872497                    
V 13  26653.375870  -6736.376968   -325.688433      0.044797                    
P 14  13376.298187 -17799.502265 -14330.349219    193.315641                    
V 14   -476.078664  18506.730427 -23558.828303      0.112898                    
P 15 -15712.556729  -8208.433344 -20326.404076     80.251778                    
V 15  20805.566704 -13520.983835 -10646.289876      0.036866                    
P 16    343.044216  25042.892491  -8425.887893   -449.991106                    
V 16  -5039.047571   9528.127971  29625.721902      0.056984                    
P 17  21107.284079 -13708.876427   9095.953980    723.840340                    
V 17  10971.973636  -1560.094458 -29106.252620      0.000738                    
P 18 -19176.363466    654.420586 -18438.265544   -426.501963                    
V 18 -17433.695591 -15537.145911  17399.120815     -0.123260                    
P 19  14900.897623 -15273.335110  15393.067796    375.349927                    
V 19  19794.252858  -3635.203061 -22806.511924      0.051778                    
P 20  -1172.881015 -26636.517224   -264.519288    410.435328                    
V 20   2983.907286   -491.465658  31388.834996     -0.019462                    
P 21  19714.034657  17408.141632  -5754.356042    148.327482                    
V 21  -7649.478607  -2508.765631 -30095.321427     -0.008404                    
P 22  10670.141124 -23140.866666  -7514.450049    116.366552                    
V 22    137.171442  10381.925801 -29676.702719     -0.073211                    
P 23 -14669.009245   9131.611990 -20113.138047     72.357109                    
V 23   1656.393513 -25531.772051 -12967.246378      0.053994                    
P 24 -21665.647058 -15662.340576  -2130.279396   -327.271350                    
V 24   3628.178936  -1544.473831 -30734.497392     -0.104378                    
P 25 -15371.755785    669.280294  21315.847996    469.217079                    
V 25   2906.849823 -27721.883864   3185.910932      0.019531                    
P 26  -3936.446668  25870.266871   3125.317254    227.079182                    
V 26  -3715.035325  -4413.979594  31007.425010     -0.019573                    
P 27    557.831147  15859.334223 -21489.560458    -44.069890                    
V 27 -24980.410594   9594.361140   6915.239967     -0.061339                    
P 28  -6855.216947  13692.730260  21679.545428    -13.879007                    
V 28 -22534.208602 -15899.730258   2913.472339     -0.057301                    
P 29 -25469.218918   3282.584645   6949.700369   -609.551788                    
V 29   7747.145343  -4791.735013  30354.517824     -0.003537                    
P 30  14104.958115  -8414.619247 -20793.033187   -485.224909                    
V 30  20624.517870  17017.886017   6800.412520      0.034677                    
P 31   2360.970320  18659.252537  18393.588633   -223.754336                    
V 31 -19756.860486 -13608.554049  16587.085674     -0.005053                    
P 32 -17319.817118  16267.151070  11831.190005   -562.315210                    
V 32 -14627.235126   3457.945862 -26772.612387     -0.058428                    
EOF
